$$SOE
2460728.500000000, A.D. 2025-Feb-22 00:00:00.0000, -6.154930545718657E+09, 1.111784748012434E+08, 1.794143533099179E+09,
2460735.500000000, A.D. 2025-Mar-01 00:00:00.0000, -6.154621786322834E+09, 1.087267789400136E+08, 1.795357173095123E+09,
2460742.500000000, A.D. 2025-Mar-08 00:00:00.0000, -6.154311895663198E+09, 1.062749740073308E+08, 1.796570482288678E+09,
2460749.500000000, A.D. 2025-Mar-15 00:00:00.0000, -6.154000869373073E+09, 1.038230624529858E+08, 1.797783460138979E+09,
2460756.500000000, A.D. 2025-Mar-22 00:00:00.0000, -6.153688704256649E+09, 1.013710488693763E+08, 1.798996106353693E+09,
2460763.500000000, A.D. 2025-Mar-29 00:00:00.0000, -6.153375399150067E+09, 9.891893815936470E+07, 1.800208420824164E+09,
2460770.500000000, A.D. 2025-Apr-05 00:00:00.0000, -6.153060954087906E+09, 9.646673458786762E+07, 1.801420403478119E+09,
2460777.500000000, A.D. 2025-Apr-12 00:00:00.0000, -6.152745369701053E+09, 9.401444182136381E+07, 1.802632054234817E+09,
2460784.500000000, A.D. 2025-Apr-19 00:00:00.0000, -6.152428647033157E+09, 9.156206307425535E+07, 1.803843373007483E+09,
2460791.500000000, A.D. 2025-Apr-26 00:00:00.0000, -6.152110787503995E+09, 8.910960115938723E+07, 1.805054359711251E+09,
2460798.500000000, A.D. 2025-May-03 00:00:00.0000, -6.151791792906067E+09, 8.665705846228182E+07, 1.806265014267548E+09,
2460805.500000000, A.D. 2025-May-10 00:00:00.0000, -6.151471665405853E+09, 8.420443684810317E+07, 1.807475336602813E+09,
2460812.500000000, A.D. 2025-May-17 00:00:00.0000, -6.151150407512976E+09, 8.175173746064770E+07, 1.808685326634700E+09,
2460819.500000000, A.D. 2025-May-24 00:00:00.0000, -6.150828021843367E+09, 7.929896035917163E+07, 1.809894984225263E+09,
2460826.500000000, A.D. 2025-May-31 00:00:00.0000, -6.150504510258654E+09, 7.684610430428898E+07, 1.811104309088180E+09,
2460833.500000000, A.D. 2025-Jun-07 00:00:00.0000, -6.150179872782712E+09, 7.439316789795315E+07, 1.812313300785213E+09,
2460840.500000000, A.D. 2025-Jun-14 00:00:00.0000, -6.149854108659926E+09, 7.194015141087019E+07, 1.813521958974302E+09,
2460847.500000000, A.D. 2025-Jun-21 00:00:00.0000, -6.149527218338412E+09, 6.948705602616823E+07, 1.814730283530361E+09,
2460854.500000000, A.D. 2025-Jun-28 00:00:00.0000, -6.149199203249981E+09, 6.703388226417589E+07, 1.815938274396108E+09,
2460861.500000000, A.D. 2025-Jul-05 00:00:00.0000, -6.148870064903589E+09, 6.458062974493635E+07, 1.817145931478316E+09,
2460868.500000000, A.D. 2025-Jul-12 00:00:00.0000, -6.148539804483253E+09, 6.212729748327446E+07, 1.818353254632977E+09,
2460875.500000000, A.D. 2025-Jul-19 00:00:00.0000, -6.148208422760876E+09, 5.967388414149678E+07, 1.819560243675051E+09,
2460882.500000000, A.D. 2025-Jul-26 00:00:00.0000, -6.147875920114038E+09, 5.722038818329370E+07, 1.820766898389012E+09,
2460889.500000000, A.D. 2025-Aug-02 00:00:00.0000, -6.147542296583390E+09, 5.476680795066655E+07, 1.821973218536083E+09,
2460896.500000000, A.D. 2025-Aug-09 00:00:00.0000, -6.147207551946199E+09, 5.231314164946926E+07, 1.823179203854942E+09,
2460903.500000000, A.D. 2025-Aug-16 00:00:00.0000, -6.146871685729130E+09, 4.985938718060410E+07, 1.824384854043858E+09,
2460910.500000000, A.D. 2025-Aug-23 00:00:00.0000, -6.146534696867616E+09, 4.740554183364081E+07, 1.825590168698977E+09,
2460917.500000000, A.D. 2025-Aug-30 00:00:00.0000, -6.146196582682919E+09, 4.495160255712998E+07, 1.826795147237165E+09,
2460924.500000000, A.D. 2025-Sep-06 00:00:00.0000, -6.145857338594943E+09, 4.249756780607772E+07, 1.827999789015476E+09,
2460931.500000000, A.D. 2025-Sep-13 00:00:00.0000, -6.145516960241630E+09, 4.004343848386502E+07, 1.829204093597844E+09,
2460938.500000000, A.D. 2025-Sep-20 00:00:00.0000, -6.145175444731644E+09, 3.758921633433282E+07, 1.830408060734622E+09,
2460945.500000000, A.D. 2025-Sep-27 00:00:00.0000, -6.144832789971845E+09, 3.513490289577234E+07, 1.831611690212409E+09,
2460952.500000000, A.D. 2025-Oct-04 00:00:00.0000, -6.144488994086194E+09, 3.268049955621684E+07, 1.832814981803334E+09,
2460959.500000000, A.D. 2025-Oct-11 00:00:00.0000, -6.144144055299802E+09, 3.022600776722455E+07, 1.834017935271166E+09,
2460966.500000000, A.D. 2025-Oct-18 00:00:00.0000, -6.143797972004395E+09, 2.777142914199698E+07, 1.835220550385791E+09,
2460973.500000000, A.D. 2025-Oct-25 00:00:00.0000, -6.143450742865722E+09, 2.531676544916809E+07, 1.836422826934173E+09,
2460980.500000000, A.D. 2025-Nov-01 00:00:00.0000, -6.143102366933460E+09, 2.286201851815593E+07, 1.837624764725301E+09,
2460987.500000000, A.D. 2025-Nov-08 00:00:00.0000, -6.142752843719120E+09, 2.040719002511656E+07, 1.838826363583275E+09,
2460994.500000000, A.D. 2025-Nov-15 00:00:00.0000, -6.142402173094154E+09, 1.795228110141182E+07, 1.840027623309944E+09,
2461001.500000000, A.D. 2025-Nov-22 00:00:00.0000, -6.142050354605610E+09, 1.549729198515129E+07, 1.841228543597974E+09,
2461008.500000000, A.D. 2025-Nov-29 00:00:00.0000, -6.141697386362616E+09, 1.304222285123694E+07, 1.842429124000902E+09,
2461015.500000000, A.D. 2025-Dec-06 00:00:00.0000, -6.141343265771170E+09, 1.058707568430245E+07, 1.843629364157778E+09,
2461022.500000000, A.D. 2025-Dec-13 00:00:00.0000, -6.140987991683599E+09, 8.131853824567437E+06, 1.844829263957007E+09,
2461029.500000000, A.D. 2025-Dec-20 00:00:00.0000, -6.140631564469558E+09, 5.676560210118532E+06, 1.846028823402493E+09,
2461036.500000000, A.D. 2025-Dec-27 00:00:00.0000, -6.140273985082372E+09, 3.221196907354593E+06, 1.847228042492293E+09,
2461043.500000000, A.D. 2026-Jan-03 00:00:00.0000, -6.139915254579953E+09, 7.657653145817518E+05, 1.848426921193257E+09,
2461050.500000000, A.D. 2026-Jan-10 00:00:00.0000, -6.139555373990519E+09, -1.689733639453292E+06, 1.849625459446178E+09,
2461057.500000000, A.D. 2026-Jan-17 00:00:00.0000, -6.139194344290573E+09, -4.145299392853498E+06, 1.850823657172686E+09,
2461064.500000000, A.D. 2026-Jan-24 00:00:00.0000, -6.138832166417174E+09, -6.600931720122814E+06, 1.852021514278672E+09,
2461071.500000000, A.D. 2026-Jan-31 00:00:00.0000, -6.138468841291066E+09, -9.056630780465007E+06, 1.853219030651619E+09,
2461078.500000000, A.D. 2026-Feb-07 00:00:00.0000, -6.138104369789139E+09, -1.151239730124855E+07, 1.854416206141592E+09,
2461085.500000000, A.D. 2026-Feb-14 00:00:00.0000, -6.137738752413175E+09, -1.396823291104734E+07, 1.855613040501565E+09,
2461092.500000000, A.D. 2026-Feb-21 00:00:00.0000, -6.137371988267286E+09, -1.642414004443610E+07, 1.856809533298773E+09,
2461099.500000000, A.D. 2026-Feb-28 00:00:00.0000, -6.137004074428942E+09, -1.888012026444983E+07, 1.858005683990965E+09,
2461106.500000000, A.D. 2026-Mar-07 00:00:00.0000, -6.136635007772060E+09, -2.133617295232427E+07, 1.859201492197082E+09,
2461113.500000000, A.D. 2026-Mar-14 00:00:00.0000, -6.136264786466532E+09, -2.379229669710553E+07, 1.860396957717218E+09,
2461120.500000000, A.D. 2026-Mar-21 00:00:00.0000, -6.135893409371223E+09, -2.624849048706615E+07, 1.861592080375289E+09,
2461127.500000000, A.D. 2026-Mar-28 00:00:00.0000, -6.135520875329901E+09, -2.870475367424738E+07, 1.862786859952878E+09,
2461134.500000000, A.D. 2026-Apr-04 00:00:00.0000, -6.135147182973791E+09, -3.116108567776668E+07, 1.863981296190877E+09,
2461141.500000000, A.D. 2026-Apr-11 00:00:00.0000, -6.134772330756834E+09, -3.361748578585911E+07, 1.865175388804581E+09,
2461148.500000000, A.D. 2026-Apr-18 00:00:00.0000, -6.134396317064241E+09, -3.607395306335890E+07, 1.866369137497261E+09,
2461155.500000000, A.D. 2026-Apr-25 00:00:00.0000, -6.134019140348290E+09, -3.853048634993613E+07, 1.867562541969424E+09,
2461162.500000000, A.D. 2026-May-02 00:00:00.0000, -6.133640799260326E+09, -4.098708437870491E+07, 1.868755601918721E+09,
2461169.500000000, A.D. 2026-May-09 00:00:00.0000, -6.133261292653998E+09, -4.344374608142757E+07, 1.869948317013820E+09,
2461176.500000000, A.D. 2026-May-16 00:00:00.0000, -6.132880619081394E+09, -4.590047094195318E+07, 1.871140686819011E+09,
2461183.500000000, A.D. 2026-May-23 00:00:00.0000, -6.132498775729959E+09, -4.835725837548161E+07, 1.872332710748427E+09,
2461190.500000000, A.D. 2026-May-30 00:00:00.0000, -6.132115758878435E+09, -5.081410581405342E+07, 1.873524388266609E+09,
2461197.500000000, A.D. 2026-Jun-06 00:00:00.0000, -6.131731566189047E+09, -5.327100877181315E+07, 1.874715719096952E+09,
2461204.500000000, A.D. 2026-Jun-13 00:00:00.0000, -6.131346197169868E+09, -5.572796269108117E+07, 1.875906703117897E+09,
2461211.500000000, A.D. 2026-Jun-20 00:00:00.0000, -6.130959652308459E+09, -5.818496364308214E+07, 1.877097340231771E+09,
2461218.500000000, A.D. 2026-Jun-27 00:00:00.0000, -6.130571932575047E+09, -6.064200822316909E+07, 1.878287630334010E+09,
2461225.500000000, A.D. 2026-Jul-04 00:00:00.0000, -6.130183039295437E+09, -6.309909341539109E+07, 1.879477573319182E+09,
2461232.500000000, A.D. 2026-Jul-11 00:00:00.0000, -6.129792974139703E+09, -6.555621655827105E+07, 1.880667169089463E+09,
2461239.500000000, A.D. 2026-Jul-18 00:00:00.0000, -6.129401739133945E+09, -6.801337538599217E+07, 1.881856417558892E+09,
2461246.500000000, A.D. 2026-Jul-25 00:00:00.0000, -6.129009336670731E+09, -7.047056814221251E+07, 1.883045318651169E+09,
2461253.500000000, A.D. 2026-Aug-01 00:00:00.0000, -6.128615769470090E+09, -7.292779381455207E+07, 1.884233872282449E+09,
2461260.500000000, A.D. 2026-Aug-08 00:00:00.0000, -6.128221040276285E+09, -7.538505252555180E+07, 1.885422078306347E+09,
2461267.500000000, A.D. 2026-Aug-15 00:00:00.0000, -6.127825150875347E+09, -7.784234562959909E+07, 1.886609936419806E+09,
2461274.500000000, A.D. 2026-Aug-22 00:00:00.0000, -6.127428101194551E+09, -8.029967429437006E+07, 1.887797446199361E+09,
2461281.500000000, A.D. 2026-Aug-29 00:00:00.0000, -6.127029890773031E+09, -8.275703793936336E+07, 1.888984607365572E+09,
2461288.500000000, A.D. 2026-Sep-05 00:00:00.0000, -6.126630520470020E+09, -8.521443539950049E+07, 1.890171419845504E+09,
2461295.500000000, A.D. 2026-Sep-12 00:00:00.0000, -6.126229991955876E+09, -8.767186631799543E+07, 1.891357883612098E+09,
$$EOE